NORAD_CAT_ID,OBJECT_NAME,OBJECT_TYPE,EPOCH,MEAN_MOTION,ECCENTRICITY,INCLINATION,RA_OF_ASC_NODE,ARG_OF_PERICENTER,MEAN_ANOMALY,BSTAR,MEAN_MOTION_DOT,MEAN_MOTION_DDOT,TLE_LINE0,TLE_LINE1,TLE_LINE2,SEMIMAJOR_AXIS,PERIOD,APOGEE,PERIGEE,DECAYED
51802.0,STARLINK-3557,PAYLOAD,2022-10-30 09:40:23,15.08855452,0.0002024,53.2151,94.1442,66.4231,293.6974,0.00010786,1.4300000000000004e-05,0.0,0 STARLINK-3557,1 51802U 22017AL  22303.40305046  .00001430  00000-0  10786-3 0  9993,2 51802  53.2151  94.1442 0002024  66.4231 293.6974 15.08855452 38799,6917.833000000001,95.437,541.0980000000002,538.298,0.0
51802.0,STARLINK-3557,PAYLOAD,2022-10-30 14:26:33,15.08845608,0.000188,53.2154,93.2518,38.0826,322.0299,4.9966e-05,5.07e-06,0.0,0 STARLINK-3557,1 51802U 22017AL  22303.60177564  .00000507  00000-0  49966-4 0  9994,2 51802  53.2154  93.2518 0001880  38.0826 322.0299 15.08845608 38823,6917.863,95.437,541.029,538.428,0.0
51802.0,STARLINK-3557,PAYLOAD,2022-10-31 09:31:11,15.08835758,0.0001854,53.216,89.68299999999998,58.2452,301.872,-0.0001088999999999,-2.021e-05,0.0,0 STARLINK-3557,1 51802U 22017AL  22304.39666074 -.00002021  00000-0 -10890-3 0  9998,2 51802  53.2160  89.6830 0001854  58.2452 301.8720 15.08835758 38948,6917.893,95.438,541.0409999999998,538.476,0.0
51802.0,STARLINK-3557,PAYLOAD,2022-10-31 19:03:30,15.08840667,0.0001684,53.2167,87.8986,59.2474,300.8684,-2.3875e-05,-6.68e-06,0.0,0 STARLINK-3557,1 51802U 22017AL  22304.79410261 -.00000668  00000-0 -23875-4 0  9990,2 51802  53.2167  87.8986 0001684  59.2474 300.8684 15.08840667 39004,6917.878000000002,95.438,540.908,538.578,0.0
51802.0,STARLINK-3557,PAYLOAD,2022-11-01 12:32:44,15.08837179,0.0001623,53.217,84.6279,54.6637,305.4507,3.3232e-05,2.41e-06,0.0,0 STARLINK-3557,1 51802U 22017AL  22305.52274257  .00000241  00000-0  33232-4 0  9998,2 51802  53.2170  84.6279 0001623  54.6637 305.4507 15.08837179 39112,6917.889,95.438,540.877,538.631,0.0
51802.0,STARLINK-3557,PAYLOAD,2022-11-01 17:18:54,15.08843254,0.0001576999999999,53.217,83.7354,53.3913,306.7224,-2.1284e-05,-6.27e-06,0.0,0 STARLINK-3557,1 51802U 22017AL  22305.72146012 -.00000627  00000-0 -21284-4 0  9991,2 51802  53.2170  83.7354 0001577  53.3913 306.7224 15.08843254 39141,6917.87,95.437,540.826,538.644,0.0
51802.0,STARLINK-3557,PAYLOAD,2022-11-02 07:37:22,15.08838822,0.0001603,53.2171,81.0595,53.2671,306.8468,0.00019187,2.767e-05,0.0,0 STARLINK-3557,1 51802U 22017AL  22306.31761879  .00002767  00000-0  19187-3 0  9994,2 51802  53.2171  81.0595 0001603  53.2671 306.8468 15.08838822 39236,6917.884,95.438,540.8580000000002,538.64,0.0
51802.0,STARLINK-3557,PAYLOAD,2022-11-02 15:34:18,15.08834207,0.0001575999999999,53.2175,79.5723,51.9765,308.1369,0.00014462,2.014e-05,0.0,0 STARLINK-3557,1 51802U 22017AL  22306.64882489  .00002014  00000-0  14462-3 0  9997,2 51802  53.2175  79.5723 0001576  51.9765 308.1369 15.08834207 39286,6917.898,95.438,540.8530000000002,538.673,0.0
51802.0,STARLINK-3557,PAYLOAD,2022-11-03 09:03:32,15.08839078,0.0001749,53.2171,76.3022,53.5556,306.5597,9.2332e-05,1.182e-05,0.0,0 STARLINK-3557,1 51802U 22017AL  22307.37746490  .00001182  00000-0  92332-4 0  9997,2 51802  53.2171  76.3022 0001749  53.5556 306.5597 15.08839078 39395,6917.8830000000025,95.438,540.9580000000002,538.538,0.0
51802.0,STARLINK-3557,PAYLOAD,2022-11-03 13:49:41,15.08848357,0.0001815,53.2176,75.4113,56.094,304.0224,0.00017824,2.55e-05,0.0,0 STARLINK-3557,1 51802U 22017AL  22307.57617731  .00002550  00000-0  17824-3 0  9996,2 51802  53.2176  75.4113 0001815  56.0940 304.0224 15.08848357 39424,6917.855,95.437,540.975,538.464,0.0
51802.0,STARLINK-3557,PAYLOAD,2022-11-04 08:54:18,15.08855485,0.0002294,53.2179,71.8444,69.7153,290.4086,0.00014483,2.018e-05,0.0,0 STARLINK-3557,1 51802U 22017AL  22308.37105027  .00002018  00000-0  14483-3 0  9992,2 51802  53.2179  71.8444 0002294  69.7153 290.4086 15.08855485 39540,6917.833000000001,95.437,541.285,538.111,0.0
51802.0,STARLINK-3557,PAYLOAD,2022-11-04 13:40:28,15.08841328,0.0001916,53.2167,70.9508,53.7741,306.3428,9.4931e-05,1.223e-05,0.0,0 STARLINK-3557,1 51802U 22017AL  22308.56977942  .00001223  00000-0  94931-4 0  9990,2 51802  53.2167  70.9508 0001916  53.7741 306.3428 15.08841328 39575,6917.876,95.437,541.067,538.4159999999998,0.0
51802.0,STARLINK-3557,PAYLOAD,2022-11-05 11:55:54,15.0882106,0.0001351,53.2179,66.7852,66.7372,293.3763,-2.5905e-05,-7.000000000000003e-06,0.0,0 STARLINK-3557,1 51802U 22017AL  22309.49715443 -.00000700  00000-0 -25905-4 0  9995,2 51802  53.2179  66.7852 0001351  66.7372 293.3763 15.08821060 39714,6917.938,95.439,540.738,538.869,0.0
51802.0,STARLINK-3557,PAYLOAD,2022-11-05 15:06:40,15.08823428,0.0001729,53.2187,66.193,64.313,295.8041,-0.00019828,-3.441e-05,0.0,0 STARLINK-3557,1 51802U 22017AL  22309.62963972 -.00003441  00000-0 -19828-3 0  9993,2 51802  53.2187  66.1930 0001729  64.3130 295.8041 15.08823428 39737,6917.931,95.439,540.992,538.6,0.0
51802.0,STARLINK-3557,PAYLOAD,2022-11-06 00:39:00,15.08815958,0.0001695,53.2177,64.4081,50.9478,309.1664,-0.00022846,-3.92e-05,0.0,0 STARLINK-3557,1 51802U 22017AL  22310.02708966 -.00003920  00000-0 -22846-3 0  9995,2 51802  53.2177  64.4081 0001695  50.9478 309.1664 15.08815958 39797,6917.954000000002,95.439,540.991,538.646,0.0
51802.0,STARLINK-3557,PAYLOAD,2022-11-06 10:11:19,15.08823516,0.0001853,53.2167,62.6232,34.7517,325.3596,-8.9323e-05,-1.709e-05,0.0,0 STARLINK-3557,1 51802U 22017AL  22310.42452559 -.00001709  00000-0 -89323-4 0  9990,2 51802  53.2167  62.6232 0001853  34.7517 325.3596 15.08823516 39854,6917.931,95.439,541.078,538.514,0.0
51802.0,STARLINK-3557,PAYLOAD,2022-11-06 11:46:42,15.08825333,0.0001892,53.2169,62.3259,37.784,322.3285,-6.4067e-05,-1.307e-05,0.0,0 STARLINK-3557,1 51802U 22017AL  22310.49076479 -.00001307  00000-0 -64067-4 0  9992,2 51802  53.2169  62.3259 0001892  37.7840 322.3285 15.08825333 39869,6917.925,95.438,541.099,538.481,0.0
51802.0,STARLINK-3557,PAYLOAD,2022-11-06 18:08:14,15.08830165,0.0001849,53.2171,61.1367,41.5658,318.5474,-1.8656e-05,-5.85e-06,0.0,0 STARLINK-3557,1 51802U 22017AL  22310.75572253 -.00000585  00000-0 -18656-4 0  9992,2 51802  53.2171  61.1367 0001849  41.5658 318.5474 15.08830165 39902,6917.91,95.438,541.055,538.496,0.0
51802.0,STARLINK-3557,PAYLOAD,2022-11-07 11:37:29,15.08824946,0.0001904,53.2174,57.8662,41.8798,318.2340000000001,0.00019881,2.876e-05,0.0,0 STARLINK-3557,1 51802U 22017AL  22311.48436522  .00002876  00000-0  19881-3 0  9994,2 51802  53.2174  57.8662 0001904  41.8798 318.2340 15.08824946 40018,6917.926,95.439,541.109,538.474,0.0
51802.0,STARLINK-3557,PAYLOAD,2022-11-08 00:20:33,15.08844081,0.0001852,53.2172,55.4859,43.5316,316.5822,0.00034559,5.217e-05,0.0,0 STARLINK-3557,1 51802U 22017AL  22312.01427137  .00005217  00000-0  34559-3 0  9997,2 51802  53.2172  55.4859 0001852  43.5316 316.5822 15.08844081 40091,6917.868,95.437,541.014,538.452,0.0
51802.0,STARLINK-3557,PAYLOAD,2022-11-08 06:42:05,15.08851642,0.0001848,53.2173,54.2972,42.3289,317.7845,0.00031292,4.697e-05,0.0,0 STARLINK-3557,1 51802U 22017AL  22312.27922652  .00004697  00000-0  31292-3 0  9999,2 51802  53.2173  54.2972 0001848  42.3289 317.7845 15.08851642 40130,6917.845,95.437,540.988,538.431,0.0
51802.0,STARLINK-3557,PAYLOAD,2022-11-09 06:32:50,15.08870342,0.0001867,53.2173,49.8369,44.4243,315.6898,0.00022936,3.367e-05,0.0,0 STARLINK-3557,1 51802U 22017AL  22313.27280388  .00003367  00000-0  22936-3 0  9991,2 51802  53.2173  49.8369 0001867  44.4243 315.6898 15.08870342 40283,6917.788000000001,95.436,540.944,538.361,0.0
51802.0,STARLINK-3557,PAYLOAD,2022-11-09 12:54:24,15.0883592,0.0002309,53.2193,48.65,61.3474,298.775,-5.3653e-05,-1.142e-05,0.0,0 STARLINK-3557,1 51802U 22017AL  22313.53778849 -.00001142  00000-0 -53653-4 0  9996,2 51802  53.2193  48.6500 0002309  61.3474 298.7750 15.08835920 40321,6917.893,95.438,541.355,538.161,0.0
51802.0,STARLINK-3557,PAYLOAD,2022-11-10 00:02:08,15.0882552,0.0001993,53.2179,46.5666,48.4992,311.6171,-0.00036352,-6.067e-05,0.0,0 STARLINK-3557,1 51802U 22017AL  22314.00148903 -.00006067  00000-0 -36352-3 0  9998,2 51802  53.2179  46.5666 0001993  48.4992 311.6171 15.08825520 40398,6917.925,95.438,541.168,538.411,0.0
51802.0,STARLINK-3557,PAYLOAD,2022-11-10 12:45:13,15.08833877,0.0002035,53.2175,44.1876,47.2515,312.8648,-0.00024589,-4.199e-05,0.0,0 STARLINK-3557,1 51802U 22017AL  22314.53140165 -.00004199  00000-0 -24589-3 0  9991,2 51802  53.2175  44.1876 0002035  47.2515 312.8648 15.08833877 40472,6917.899,95.438,541.172,538.356,0.0
51802.0,STARLINK-3557,PAYLOAD,2022-11-10 15:55:59,15.08838566,0.0001997,53.2176,43.5926,49.6918,310.4248,-0.00022964,-3.941e-05,0.0,0 STARLINK-3557,1 51802U 22017AL  22314.66387816 -.00003941  00000-0 -22964-3 0  9990,2 51802  53.2176  43.5926 0001997  49.6918 310.4248 15.08838566 40493,6917.885,95.438,541.131,538.368,0.0
51802.0,STARLINK-3557,PAYLOAD,2022-11-11 09:25:13,15.08842369,0.0001957,53.2179,40.3223,48.8284,311.2876,-0.00013832,-2.489e-05,0.0,0 STARLINK-3557,1 51802U 22017AL  22315.39251417 -.00002489  00000-0 -13832-3 0  9998,2 51802  53.2179  40.3223 0001957  48.8284 311.2876 15.08842369 40609,6917.873000000001,95.437,541.092,538.384,0.0
51802.0,STARLINK-3557,PAYLOAD,2022-11-11 11:00:40,15.08730582,0.0002803,53.2179,40.0254,71.1952,288.9344,0.00168,0.00026471,0.0,0 STARLINK-3557,1 51802U 22017AL  22315.45879696  .00026471  00000-0  16800-2 0  9992,2 51802  53.2179  40.0254 0002803  71.1952 288.9344 15.08730582 40616,6918.215,95.444,542.019,538.141,0.0
51802.0,STARLINK-3557,PAYLOAD,2022-11-11 15:46:46,15.088275,0.0002111,53.2172,39.1325,43.6976,316.4183,0.00025827,3.823e-05,0.0,0 STARLINK-3557,1 51802U 22017AL  22315.65748576  .00003823  00000-0  25827-3 0  9992,2 51802  53.2172  39.1325 0002111  43.6976 316.4183 15.08827500 40647,6917.919,95.438,541.244,538.323,0.0
